{"type": "FeatureCollection", "name": "Gafsa phosphate basin: simulated room-and-pillar panel (Metlaoui area)", "properties": {"site": "gafsa_mine", "name": "Gafsa phosphate basin: simulated room-and-pillar panel (Metlaoui area)", "underground": true, "note": "Simulated room-and-pillar layout, not a CPG plan."}, "features": [{"type": "Feature", "properties": {"kind": "rock", "name": "rock_portal_gate"}, "geometry": {"type": "Polygon", "coordinates": [[[8.4183772, 34.315882], [8.4183837, 34.315882], [8.4183837, 34.315918], [8.4183772, 34.315918], [8.4183772, 34.315882]]]}}, {"type": "Feature", "properties": {"kind": "rock", "name": "rock_drift_s"}, "geometry": {"type": "Polygon", "coordinates": [[[8.4183772, 34.315882], [8.418487, 34.315882], [8.418487, 34.3158874], [8.4183772, 34.3158874], [8.4183772, 34.315882]]]}}, {"type": "Feature", "properties": {"kind": "rock", "name": "rock_drift_n_w"}, "geometry": {"type": "Polygon", "coordinates": [[[8.4183772, 34.3159126], [8.4184326, 34.3159126], [8.4184326, 34.315918], [8.4183772, 34.315918], [8.4183772, 34.3159126]]]}}, {"type": "Feature", "properties": {"kind": "rock", "name": "rock_drift_n_e"}, "geometry": {"type": "Polygon", "coordinates": [[[8.4184631, 34.3159126], [8.418487, 34.3159126], [8.418487, 34.315918], [8.4184631, 34.315918], [8.4184631, 34.3159126]]]}}, {"type": "Feature", "properties": {"kind": "rock", "name": "rock_deadend_w"}, "geometry": {"type": "Polygon", "coordinates": [[[8.4184261, 34.3159126], [8.4184326, 34.3159126], [8.4184326, 34.3159791], [8.4184261, 34.3159791], [8.4184261, 34.3159126]]]}}, {"type": "Feature", "properties": {"kind": "rock", "name": "rock_deadend_e"}, "geometry": {"type": "Polygon", "coordinates": [[[8.4184631, 34.315918], [8.4184805, 34.315918], [8.4184805, 34.3159791], [8.4184631, 34.3159791], [8.4184631, 34.315918]]]}}, {"type": "Feature", "properties": {"kind": "rock", "name": "rock_deadend_end"}, "geometry": {"type": "Polygon", "coordinates": [[[8.4184261, 34.3159737], [8.4184805, 34.3159737], [8.4184805, 34.3159791], [8.4184261, 34.3159791], [8.4184261, 34.3159737]]]}}, {"type": "Feature", "properties": {"kind": "rock", "name": "rock_panel_w_n"}, "geometry": {"type": "Polygon", "coordinates": [[[8.4184805, 34.3159126], [8.418487, 34.3159126], [8.418487, 34.3159791], [8.4184805, 34.3159791], [8.4184805, 34.3159126]]]}}, {"type": "Feature", "properties": {"kind": "rock", "name": "rock_panel_w_s"}, "geometry": {"type": "Polygon", "coordinates": [[[8.4184805, 34.3158209], [8.418487, 34.3158209], [8.418487, 34.3158874], [8.4184805, 34.3158874], [8.4184805, 34.3158209]]]}}, {"type": "Feature", "properties": {"kind": "rock", "name": "rock_panel_n"}, "geometry": {"type": "Polygon", "coordinates": [[[8.4184805, 34.3159737], [8.4187459, 34.3159737], [8.4187459, 34.3159791], [8.4184805, 34.3159791], [8.4184805, 34.3159737]]]}}, {"type": "Feature", "properties": {"kind": "rock", "name": "rock_panel_s"}, "geometry": {"type": "Polygon", "coordinates": [[[8.4184805, 34.3158209], [8.4187459, 34.3158209], [8.4187459, 34.3158263], [8.4184805, 34.3158263], [8.4184805, 34.3158209]]]}}, {"type": "Feature", "properties": {"kind": "rock", "name": "rock_panel_e"}, "geometry": {"type": "Polygon", "coordinates": [[[8.4187393, 34.3158209], [8.4187459, 34.3158209], [8.4187459, 34.3159791], [8.4187393, 34.3159791], [8.4187393, 34.3158209]]]}}, {"type": "Feature", "properties": {"kind": "pillar", "name": "pillar_1"}, "geometry": {"type": "Polygon", "coordinates": [[[8.4185175, 34.3159126], [8.418561, 34.3159126], [8.418561, 34.3159485], [8.4185175, 34.3159485], [8.4185175, 34.3159126]]]}}, {"type": "Feature", "properties": {"kind": "pillar", "name": "pillar_2"}, "geometry": {"type": "Polygon", "coordinates": [[[8.4185914, 34.3159126], [8.4186349, 34.3159126], [8.4186349, 34.3159485], [8.4185914, 34.3159485], [8.4185914, 34.3159126]]]}}, {"type": "Feature", "properties": {"kind": "pillar", "name": "pillar_3"}, "geometry": {"type": "Polygon", "coordinates": [[[8.4186654, 34.3159126], [8.4187089, 34.3159126], [8.4187089, 34.3159485], [8.4186654, 34.3159485], [8.4186654, 34.3159126]]]}}, {"type": "Feature", "properties": {"kind": "pillar", "name": "pillar_4"}, "geometry": {"type": "Polygon", "coordinates": [[[8.4185175, 34.3158515], [8.418561, 34.3158515], [8.418561, 34.3158874], [8.4185175, 34.3158874], [8.4185175, 34.3158515]]]}}, {"type": "Feature", "properties": {"kind": "pillar", "name": "pillar_5"}, "geometry": {"type": "Polygon", "coordinates": [[[8.4185914, 34.3158515], [8.4186349, 34.3158515], [8.4186349, 34.3158874], [8.4185914, 34.3158874], [8.4185914, 34.3158515]]]}}, {"type": "Feature", "properties": {"kind": "pillar", "name": "pillar_6"}, "geometry": {"type": "Polygon", "coordinates": [[[8.4186654, 34.3158515], [8.4187089, 34.3158515], [8.4187089, 34.3158874], [8.4186654, 34.3158874], [8.4186654, 34.3158515]]]}}, {"type": "Feature", "properties": {"kind": "seam", "name": "rich phosphate layer", "grade_p2o5": 29.0, "layer": "C II"}, "geometry": {"type": "LineString", "coordinates": [[8.4186686, 34.3159126], [8.4187056, 34.3159126]]}}, {"type": "Feature", "properties": {"kind": "seam", "name": "medium phosphate layer", "grade_p2o5": 24.5, "layer": "C V-VI"}, "geometry": {"type": "LineString", "coordinates": [[8.4185207, 34.3158874], [8.4185577, 34.3158874]]}}, {"type": "Feature", "properties": {"kind": "seam", "name": "poor phosphate layer", "grade_p2o5": 18.0, "layer": "C VII"}, "geometry": {"type": "LineString", "coordinates": [[8.4184044, 34.3159126], [8.4184315, 34.3159126]]}}, {"type": "Feature", "properties": {"kind": "zone", "id": "Z1", "name": "access drift"}, "geometry": {"type": "MultiPolygon", "coordinates": [[[[8.4183837, 34.3158874], [8.418487, 34.3158874], [8.418487, 34.3159126], [8.4183837, 34.3159126], [8.4183837, 34.3158874]]]]}}, {"type": "Feature", "properties": {"kind": "zone", "id": "Z2", "name": "dead-end gallery"}, "geometry": {"type": "MultiPolygon", "coordinates": [[[[8.4184326, 34.3159126], [8.4184631, 34.3159126], [8.4184631, 34.3159737], [8.4184326, 34.3159737], [8.4184326, 34.3159126]]]]}}, {"type": "Feature", "properties": {"kind": "zone", "id": "Z3", "name": "north gallery"}, "geometry": {"type": "MultiPolygon", "coordinates": [[[[8.418487, 34.3159485], [8.4187393, 34.3159485], [8.4187393, 34.3159737], [8.418487, 34.3159737], [8.418487, 34.3159485]]]]}}, {"type": "Feature", "properties": {"kind": "zone", "id": "Z4", "name": "main haulage"}, "geometry": {"type": "MultiPolygon", "coordinates": [[[[8.418487, 34.3158874], [8.4187393, 34.3158874], [8.4187393, 34.3159126], [8.418487, 34.3159126], [8.418487, 34.3158874]]]]}}, {"type": "Feature", "properties": {"kind": "zone", "id": "Z5", "name": "south gallery"}, "geometry": {"type": "MultiPolygon", "coordinates": [[[[8.418487, 34.3158263], [8.4187393, 34.3158263], [8.4187393, 34.3158515], [8.418487, 34.3158515], [8.418487, 34.3158263]]]]}}, {"type": "Feature", "properties": {"kind": "zone", "id": "Z6", "name": "cross-cuts, column 9"}, "geometry": {"type": "MultiPolygon", "coordinates": [[[[8.418487, 34.3159126], [8.4185175, 34.3159126], [8.4185175, 34.3159485], [8.418487, 34.3159485], [8.418487, 34.3159126]]], [[[8.418487, 34.3158515], [8.4185175, 34.3158515], [8.4185175, 34.3158874], [8.418487, 34.3158874], [8.418487, 34.3158515]]]]}}, {"type": "Feature", "properties": {"kind": "zone", "id": "Z7", "name": "cross-cuts, column 16"}, "geometry": {"type": "MultiPolygon", "coordinates": [[[[8.418561, 34.3159126], [8.4185914, 34.3159126], [8.4185914, 34.3159485], [8.418561, 34.3159485], [8.418561, 34.3159126]]], [[[8.418561, 34.3158515], [8.4185914, 34.3158515], [8.4185914, 34.3158874], [8.418561, 34.3158874], [8.418561, 34.3158515]]]]}}, {"type": "Feature", "properties": {"kind": "zone", "id": "Z8", "name": "cross-cuts, column 23"}, "geometry": {"type": "MultiPolygon", "coordinates": [[[[8.4186349, 34.3159126], [8.4186654, 34.3159126], [8.4186654, 34.3159485], [8.4186349, 34.3159485], [8.4186349, 34.3159126]]], [[[8.4186349, 34.3158515], [8.4186654, 34.3158515], [8.4186654, 34.3158874], [8.4186349, 34.3158874], [8.4186349, 34.3158515]]]]}}, {"type": "Feature", "properties": {"kind": "zone", "id": "Z9", "name": "east gallery, column 30"}, "geometry": {"type": "MultiPolygon", "coordinates": [[[[8.4187089, 34.3159126], [8.4187393, 34.3159126], [8.4187393, 34.3159485], [8.4187089, 34.3159485], [8.4187089, 34.3159126]]], [[[8.4187089, 34.3158515], [8.4187393, 34.3158515], [8.4187393, 34.3158874], [8.4187089, 34.3158874], [8.4187089, 34.3158515]]]]}}, {"type": "Feature", "properties": {"kind": "gateway", "name": "gw1", "note": "portal: sees down the drift and the main haulage row"}, "geometry": {"type": "Point", "coordinates": [8.4183891, 34.3159]}}, {"type": "Feature", "properties": {"kind": "gateway", "name": "gw2", "note": "north-west junction, on the cable backbone"}, "geometry": {"type": "Point", "coordinates": [8.4185022, 34.3159611]}}, {"type": "Feature", "properties": {"kind": "gateway", "name": "gw3", "note": "south junction of column 23, on the cable backbone"}, "geometry": {"type": "Point", "coordinates": [8.4186502, 34.3158389]}}, {"type": "Feature", "properties": {"kind": "portal", "name": "Portal (entrance, EXIT)"}, "geometry": {"type": "Point", "coordinates": [8.4184, 34.3159]}}]}